1 90000           19337.16666667  .00000656  00000-0  20337-2 0 00003
2 90000 037.3560 148.8025 0005947 266.9993 066.1093 13.04264811000018
1 90001           19337.16666667  .00000534  00000-0  16552-2 0 00003
2 90001 037.3560 148.8025 0005953 267.0220 106.0866 13.04264907000019
1 90002           19337.16666667  .00000215  00000-0  66739-3 0 00003
2 90002 037.3560 148.8026 0005958 267.0636 146.0448 13.04265158000016
1 90003           19337.16666667 -.00000152  00000-0 -47153-3 0 00005
2 90003 037.3559 148.8026 0005960 267.1468 185.9614 13.04265508000018
1 90004           19337.16666667 -.00000495  00000-0 -15351-2 0 00000
2 90004 037.3559 148.8025 0005954 267.2035 225.9044 13.04265908000018
1 90005           19337.16666667 -.00000704  00000-0 -21819-2 0 00000
2 90005 037.3560 148.8025 0005949 267.2281 265.8795 13.04266165000010
1 90006           19337.16666667 -.00000581  00000-0 -17999-2 0 00008
2 90006 037.3560 148.8026 0005940 267.2302 305.8776 13.04266027000018
1 90007           19337.16666667 -.00000116  00000-0 -35864-3 0 00005
2 90007 037.3559 148.8026 0005932 267.1380 345.9700 13.04265532000015
1 90008           19337.16666667  .00000412  00000-0  12777-2 0 00000
2 90008 037.3559 148.8025 0005936 267.0208 026.0877 13.04265022000013
